IRIDIUM 26              
1 24903U 97043A   25361.10984279  .00000431  00000+0  13780-3 0  9997
2 24903  86.3947  29.5216 0002288  97.1689 262.9769 14.37338557484454
IRIDIUM 22              
1 24907U 97043E   25361.13056806  .00000380  00000+0  12388-3 0  9996
2 24907  86.3951  33.2186 0002340  92.3295 267.8170 14.36131450484463
DUMMY MASS 1            
1 24925U 97048A   25361.13753154  .00000466  00000+0  48635-4 0  9991
2 24925  86.3332  46.0425 0006962 162.0607 198.0865 14.87195017533804
DUMMY MASS 2            
1 24926U 97048B   25361.13191833  .00000473  00000+0  49706-4 0  9990
2 24926  86.3330  47.6886 0007199 175.3322 184.7971 14.86945501533579
IRIDIUM 29              
1 24944U 97051A   25361.15291514  .00000431  00000+0  13984-3 0  9995
2 24944  86.3942  62.8913 0002219  90.0392 270.1060 14.36674067480971
IRIDIUM 33              
1 24946U 97051C   25361.14030484  .00000376  00000+0  12488-3 0  9999
2 24946  86.3856  62.1762 0008713 154.5165 205.6463 14.35047353480411
IRIDIUM 28              
1 24948U 97051E   25361.14411619  .00000441  00000+0  14059-3 0  9993
2 24948  86.3948  60.3004 0002408 107.1437 253.0024 14.37574350481566
IRIDIUM 36              
1 24967U 97056C   25360.79901500  .00000480  00000+0  15284-3 0  9996
2 24967  86.3962  92.0737 0002377  99.2002 260.9465 14.37796427479892
